MALLIGYONG-1            
1 58400U 23179A   24201.60955551  .00008025  00000+0  35942-3 0  9994
2 58400  97.4003  87.9089 0003685  89.3435 270.8223 15.21514429 36655
